[{"OBJECT_NAME":"STARLINK-35110","OBJECT_ID":"2025-200V","EPOCH":"2026-03-09T22:45:37.744128","MEAN_MOTION":15.05660801,"ECCENTRICITY":0.00010456,"INCLINATION":97.6033,"RA_OF_ASC_NODE":140.1141,"ARG_OF_PERICENTER":80.0162,"MEAN_ANOMALY":280.1182,"EPHEMERIS_TYPE":0,"CLASSIFICATION_TYPE":"U","NORAD_CAT_ID":65539,"ELEMENT_SET_NO":999,"REV_AT_EPOCH":2917,"BSTAR":0.00028334924,"MEAN_MOTION_DOT":4.031e-5,"MEAN_MOTION_DDOT":0},{"OBJECT_NAME":"PEGASUS DEB","OBJECT_ID":"1994-029AGC","EPOCH":"2026-03-05T08:27:18.984384","MEAN_MOTION":14.52218034,"ECCENTRICITY":0.0236757,"INCLINATION":81.9426,"RA_OF_ASC_NODE":296.4283,"ARG_OF_PERICENTER":114.8689,"MEAN_ANOMALY":247.7324,"EPHEMERIS_TYPE":0,"CLASSIFICATION_TYPE":"U","NORAD_CAT_ID":39929,"ELEMENT_SET_NO":999,"REV_AT_EPOCH":61587,"BSTAR":0.0010545,"MEAN_MOTION_DOT":6.215e-5,"MEAN_MOTION_DDOT":0}]
